{"fetched_at":"2026-07-12T05:52:32.048Z","source":"https://celestrak.org/NORAD/elements/gp.php?GROUP=kuiper&FORMAT=JSON","constellation":"kuiper","records":[{"OBJECT_NAME":"KUIPER-00408","OBJECT_ID":"2026-098F","EPOCH":"2026-07-11T15:26:23.216064","CLASSIFICATION_TYPE":"U","MEAN_MOTION":15.26337979,"ECCENTRICITY":0.0013421,"INCLINATION":51.8781,"RA_OF_ASC_NODE":312.833,"ARG_OF_PERICENTER":246.0614,"MEAN_ANOMALY":113.8963,"EPHEMERIS_TYPE":0,"NORAD_CAT_ID":68924,"ELEMENT_SET_NO":999,"REV_AT_EPOCH":1106,"BSTAR":-0.0021764,"MEAN_MOTION_DOT":-0.00057399,"MEAN_MOTION_DDOT":0},{"OBJECT_NAME":"KUIPER-00409","OBJECT_ID":"2026-098G","EPOCH":"2026-07-11T20:00:03.000384","CLASSIFICATION_TYPE":"U","MEAN_MOTION":15.07395632,"ECCENTRICITY":0.0004197,"INCLINATION":51.8897,"RA_OF_ASC_NODE":310.8576,"ARG_OF_PERICENTER":266.6824,"MEAN_ANOMALY":176.1537,"EPHEMERIS_TYPE":0,"NORAD_CAT_ID":68925,"ELEMENT_SET_NO":999,"REV_AT_EPOCH":293,"BSTAR":0.00070433,"MEAN_MOTION_DOT":0.00010517,"MEAN_MOTION_DDOT":0},{"OBJECT_NAME":"KUIPER-00410","OBJECT_ID":"2026-098H","EPOCH":"2026-07-10T22:03:06.222528","CLASSIFICATION_TYPE":"U","MEAN_MOTION":15.26557489,"ECCENTRICITY":0.00130043,"INCLINATION":51.8752,"RA_OF_ASC_NODE":316.2179,"ARG_OF_PERICENTER":239.5534,"MEAN_ANOMALY":120.4164,"EPHEMERIS_TYPE":0,"NORAD_CAT_ID":68926,"ELEMENT_SET_NO":999,"REV_AT_EPOCH":1095,"BSTAR":0.00012256698,"MEAN_MOTION_DOT":0.00002906,"MEAN_MOTION_DDOT":0},{"OBJECT_NAME":"KUIPER-00412","OBJECT_ID":"2026-098J","EPOCH":"2026-07-11T15:07:12.825984","CLASSIFICATION_TYPE":"U","MEAN_MOTION":15.3752526,"ECCENTRICITY":0.0003196,"INCLINATION":51.8784,"RA_OF_ASC_NODE":309.1113,"ARG_OF_PERICENTER":332.8353,"MEAN_ANOMALY":27.2466,"EPHEMERIS_TYPE":0,"NORAD_CAT_ID":68927,"ELEMENT_SET_NO":999,"REV_AT_EPOCH":1111,"BSTAR":-0.00090207,"MEAN_MOTION_DOT":-0.00033976,"MEAN_MOTION_DDOT":0},{"OBJECT_NAME":"KUIPER-00413","OBJECT_ID":"2026-098K","EPOCH":"2026-07-11T20:00:03.000384","CLASSIFICATION_TYPE":"U","MEAN_MOTION":15.07993,"ECCENTRICITY":0.0020016,"INCLINATION":51.8846,"RA_OF_ASC_NODE":313.2499,"ARG_OF_PERICENTER":252.6383,"MEAN_ANOMALY":116.6021,"EPHEMERIS_TYPE":0,"NORAD_CAT_ID":68928,"ELEMENT_SET_NO":999,"REV_AT_EPOCH":575,"BSTAR":-0.0033473,"MEAN_MOTION_DOT":-0.00052264,"MEAN_MOTION_DDOT":0},{"OBJECT_NAME":"KUIPER-00414","OBJECT_ID":"2026-098L","EPOCH":"2026-07-11T13:39:22.870080","CLASSIFICATION_TYPE":"U","MEAN_MOTION":14.79928341,"ECCENTRICITY":0.0001293,"INCLINATION":51.8973,"RA_OF_ASC_NODE":322.9427,"ARG_OF_PERICENTER":258.3488,"MEAN_ANOMALY":101.7329,"EPHEMERIS_TYPE":0,"NORAD_CAT_ID":68929,"ELEMENT_SET_NO":999,"REV_AT_EPOCH":1091,"BSTAR":0.000091338,"MEAN_MOTION_DOT":0.00000475,"MEAN_MOTION_DDOT":0},{"OBJECT_NAME":"KUIPER-00415","OBJECT_ID":"2026-098M","EPOCH":"2026-07-11T15:22:51.748608","CLASSIFICATION_TYPE":"U","MEAN_MOTION":15.30263064,"ECCENTRICITY":0.0008578,"INCLINATION":51.8791,"RA_OF_ASC_NODE":311.3754,"ARG_OF_PERICENTER":237.1626,"MEAN_ANOMALY":122.8532,"EPHEMERIS_TYPE":0,"NORAD_CAT_ID":68930,"ELEMENT_SET_NO":999,"REV_AT_EPOCH":1108,"BSTAR":0.000018564,"MEAN_MOTION_DOT":0.00000187,"MEAN_MOTION_DDOT":0},{"OBJECT_NAME":"KUIPER-00416","OBJECT_ID":"2026-098N","EPOCH":"2026-07-11T14:55:44.973120","CLASSIFICATION_TYPE":"U","MEAN_MOTION":15.37583606,"ECCENTRICITY":0.0001558,"INCLINATION":51.8754,"RA_OF_ASC_NODE":309.0381,"ARG_OF_PERICENTER":315.8842,"MEAN_ANOMALY":44.2021,"EPHEMERIS_TYPE":0,"NORAD_CAT_ID":68931,"ELEMENT_SET_NO":999,"REV_AT_EPOCH":1111,"BSTAR":0.00030028,"MEAN_MOTION_DOT":0.00010873,"MEAN_MOTION_DDOT":0},{"OBJECT_NAME":"KUIPER-00420","OBJECT_ID":"2026-098P","EPOCH":"2026-07-11T14:30:29.963808","CLASSIFICATION_TYPE":"U","MEAN_MOTION":15.36643688,"ECCENTRICITY":0.000344,"INCLINATION":51.878,"RA_OF_ASC_NODE":309.6738,"ARG_OF_PERICENTER":296.3628,"MEAN_ANOMALY":63.7005,"EPHEMERIS_TYPE":0,"NORAD_CAT_ID":68932,"ELEMENT_SET_NO":999,"REV_AT_EPOCH":1110,"BSTAR":0.00033658,"MEAN_MOTION_DOT":0.00011863,"MEAN_MOTION_DDOT":0},{"OBJECT_NAME":"KUIPER-00421","OBJECT_ID":"2026-098Q","EPOCH":"2026-07-11T13:09:45.976320","CLASSIFICATION_TYPE":"U","MEAN_MOTION":15.30057233,"ECCENTRICITY":0.0007482,"INCLINATION":51.8776,"RA_OF_ASC_NODE":311.5072,"ARG_OF_PERICENTER":216.8858,"MEAN_ANOMALY":143.1612,"EPHEMERIS_TYPE":0,"NORAD_CAT_ID":68933,"ELEMENT_SET_NO":999,"REV_AT_EPOCH":1107,"BSTAR":0.0003084,"MEAN_MOTION_DOT":0.00008756,"MEAN_MOTION_DDOT":0},{"OBJECT_NAME":"KUIPER-00425","OBJECT_ID":"2026-098R","EPOCH":"2026-07-11T20:00:03.000384","CLASSIFICATION_TYPE":"U","MEAN_MOTION":15.19816513,"ECCENTRICITY":0.0014075,"INCLINATION":51.881,"RA_OF_ASC_NODE":312.0638,"ARG_OF_PERICENTER":239.8271,"MEAN_ANOMALY":9.2062,"EPHEMERIS_TYPE":0,"NORAD_CAT_ID":68934,"ELEMENT_SET_NO":999,"REV_AT_EPOCH":576,"BSTAR":-0.060238,"MEAN_MOTION_DOT":-0.01206375,"MEAN_MOTION_DDOT":0},{"OBJECT_NAME":"KUIPER-00430","OBJECT_ID":"2026-098S","EPOCH":"2026-07-11T20:00:03.000384","CLASSIFICATION_TYPE":"U","MEAN_MOTION":15.05559061,"ECCENTRICITY":0.0017774,"INCLINATION":51.8883,"RA_OF_ASC_NODE":312.85,"ARG_OF_PERICENTER":248.4618,"MEAN_ANOMALY":30.3145,"EPHEMERIS_TYPE":0,"NORAD_CAT_ID":68935,"ELEMENT_SET_NO":999,"REV_AT_EPOCH":560,"BSTAR":0.00069277,"MEAN_MOTION_DOT":0.00009858,"MEAN_MOTION_DDOT":0},{"OBJECT_NAME":"KUIPER-00431","OBJECT_ID":"2026-098T","EPOCH":"2026-07-11T20:00:03.000384","CLASSIFICATION_TYPE":"U","MEAN_MOTION":14.91082349,"ECCENTRICITY":0.001377,"INCLINATION":51.8952,"RA_OF_ASC_NODE":314.4695,"ARG_OF_PERICENTER":220.1978,"MEAN_ANOMALY":275.9249,"EPHEMERIS_TYPE":0,"NORAD_CAT_ID":68936,"ELEMENT_SET_NO":999,"REV_AT_EPOCH":385,"BSTAR":0.00034801,"MEAN_MOTION_DOT":0.00003242,"MEAN_MOTION_DDOT":0},{"OBJECT_NAME":"KUIPER-00432","OBJECT_ID":"2026-098U","EPOCH":"2026-07-11T20:00:03.000384","CLASSIFICATION_TYPE":"U","MEAN_MOTION":15.27299989,"ECCENTRICITY":0.0010919,"INCLINATION":51.8748,"RA_OF_ASC_NODE":311.1318,"ARG_OF_PERICENTER":236.0184,"MEAN_ANOMALY":118.2455,"EPHEMERIS_TYPE":0,"NORAD_CAT_ID":68937,"ELEMENT_SET_NO":999,"REV_AT_EPOCH":570,"BSTAR":0.0010224,"MEAN_MOTION_DOT":0.00027524,"MEAN_MOTION_DDOT":0},{"OBJECT_NAME":"KUIPER-00434","OBJECT_ID":"2026-098V","EPOCH":"2026-07-11T20:00:03.000384","CLASSIFICATION_TYPE":"U","MEAN_MOTION":15.09661754,"ECCENTRICITY":0.0002871,"INCLINATION":51.8828,"RA_OF_ASC_NODE":310.7801,"ARG_OF_PERICENTER":214.9088,"MEAN_ANOMALY":352.3395,"EPHEMERIS_TYPE":0,"NORAD_CAT_ID":68938,"ELEMENT_SET_NO":999,"REV_AT_EPOCH":575,"BSTAR":-0.002523,"MEAN_MOTION_DOT":-0.00041162,"MEAN_MOTION_DDOT":0},{"OBJECT_NAME":"KUIPER-00436","OBJECT_ID":"2026-098W","EPOCH":"2026-07-11T20:00:03.000384","CLASSIFICATION_TYPE":"U","MEAN_MOTION":15.12676275,"ECCENTRICITY":0.0008796,"INCLINATION":51.8839,"RA_OF_ASC_NODE":311.1629,"ARG_OF_PERICENTER":245.5131,"MEAN_ANOMALY":121.8146,"EPHEMERIS_TYPE":0,"NORAD_CAT_ID":68939,"ELEMENT_SET_NO":999,"REV_AT_EPOCH":453,"BSTAR":-0.036777,"MEAN_MOTION_DOT":-0.00607931,"MEAN_MOTION_DDOT":0}]}
