[
  {
    "name": "KUIPER-00408",
    "noradId": "68924",
    "line1": "1 68924U 26098F   26192.64332426 -.00057399  00000+0 -21764-2 0  9990",
    "line2": "2 68924  51.8781 312.8330 0013421 246.0614 113.8963 15.26337979 11066"
  },
  {
    "name": "KUIPER-00409",
    "noradId": "68925",
    "line1": "1 68925U 26098G   26192.83336806  .00010517  00000+0  70433-3 0  9995",
    "line2": "2 68925  51.8897 310.8576 0004197 266.6824 176.1537 15.07395632  2930"
  },
  {
    "name": "KUIPER-00410",
    "noradId": "68926",
    "line1": "1 68926U 26098H   26191.91882202  .00002906  00000+0  12257-3 0  9993",
    "line2": "2 68926  51.8752 316.2179 0013004 239.5534 120.4164 15.26557489 10954"
  },
  {
    "name": "KUIPER-00412",
    "noradId": "68927",
    "line1": "1 68927U 26098J   26192.63000956 -.00033976  00000+0 -90207-3 0  9996",
    "line2": "2 68927  51.8784 309.1113 0003196 332.8353  27.2466 15.37525260 11118"
  },
  {
    "name": "KUIPER-00413",
    "noradId": "68928",
    "line1": "1 68928U 26098K   26192.83336806 -.00052264  00000+0 -33473-2 0  9997",
    "line2": "2 68928  51.8846 313.2499 0020016 252.6383 116.6021 15.07993000  5754"
  },
  {
    "name": "KUIPER-00414",
    "noradId": "68929",
    "line1": "1 68929U 26098L   26192.56901470  .00000475  00000+0  91338-4 0  9994",
    "line2": "2 68929  51.8973 322.9427 0001293 258.3488 101.7329 14.79928341 10913"
  },
  {
    "name": "KUIPER-00415",
    "noradId": "68930",
    "line1": "1 68930U 26098M   26192.64087672  .00000187  00000+0  18564-4 0  9994",
    "line2": "2 68930  51.8791 311.3754 0008578 237.1626 122.8532 15.30263064 11081"
  },
  {
    "name": "KUIPER-00416",
    "noradId": "68931",
    "line1": "1 68931U 26098N   26192.62204830  .00010873  00000+0  30028-3 0  9991",
    "line2": "2 68931  51.8754 309.0381 0001558 315.8842  44.2021 15.37583606 11114"
  },
  {
    "name": "KUIPER-00420",
    "noradId": "68932",
    "line1": "1 68932U 26098P   26192.60451347  .00011863  00000+0  33658-3 0  9999",
    "line2": "2 68932  51.8780 309.6738 0003440 296.3628  63.7005 15.36643688 11106"
  },
  {
    "name": "KUIPER-00421",
    "noradId": "68933",
    "line1": "1 68933U 26098Q   26192.54844880  .00008756  00000+0  30840-3 0  9998",
    "line2": "2 68933  51.8776 311.5072 0007482 216.8858 143.1612 15.30057233 11079"
  },
  {
    "name": "KUIPER-00425",
    "noradId": "68934",
    "line1": "1 68934U 26098R   26192.83336806 -.01206375  00000+0 -60238-1 0  9997",
    "line2": "2 68934  51.8810 312.0638 0014075 239.8271   9.2062 15.19816513  5764"
  },
  {
    "name": "KUIPER-00430",
    "noradId": "68935",
    "line1": "1 68935U 26098S   26192.83336806  .00009858  00000+0  69277-3 0  9996",
    "line2": "2 68935  51.8883 312.8500 0017774 248.4618  30.3145 15.05559061  5608"
  },
  {
    "name": "KUIPER-00431",
    "noradId": "68936",
    "line1": "1 68936U 26098T   26192.83336806  .00003242  00000+0  34801-3 0  9993",
    "line2": "2 68936  51.8952 314.4695 0013770 220.1978 275.9249 14.91082349  3858"
  },
  {
    "name": "KUIPER-00432",
    "noradId": "68937",
    "line1": "1 68937U 26098U   26192.83336806  .00027524  00000+0  10224-2 0  9995",
    "line2": "2 68937  51.8748 311.1318 0010919 236.0184 118.2455 15.27299989  5709"
  },
  {
    "name": "KUIPER-00434",
    "noradId": "68938",
    "line1": "1 68938U 26098V   26192.83336806 -.00041162  00000+0 -25230-2 0  9995",
    "line2": "2 68938  51.8828 310.7801 0002871 214.9088 352.3395 15.09661754  5759"
  },
  {
    "name": "KUIPER-00436",
    "noradId": "68939",
    "line1": "1 68939U 26098W   26192.83336806 -.00607931  00000+0 -36777-1 0  9995",
    "line2": "2 68939  51.8839 311.1629 0008796 245.5131 121.8146 15.12676275  4532"
  }
]